SatCatId,ObjectName,LaunchYear,OrbitalPeriod,LaunchMass,StatusCode,Inclination,Status,UcsData,OrbitClassEstimated,LaunchSiteCountry,Owner,UseType,Purpose,LaunchVehicleClass,TLE1,TLE2,MeanMotion,Eccentricity,OrbitClass
48686,STARLINK-2629,2021,95.59,260.0,+,53.05,Active,1,LEO,USA,USA,Commercial,Communications,Falcon,1 48686U 21044BA  23276.52171523  .00018544  00000+0  12600-2 0  9991,2 48686  53.0530 104.0398 0001670  83.6979 276.4201 15.06415728130466,15.06415728,0.000167,LEO
48687,STARLINK-2627,2021,95.59,260.0,+,53.05,Active,1,LEO,USA,USA,Commercial,Communications,Falcon,1 48687U 21044BB  23276.49679634  .00020897  00000+0  14170-2 0  9992,2 48687  53.0532  93.8717 0001446  84.2382 275.8772 15.06417264130604,15.06417264,0.0001446,LEO
48688,STARLINK-2742,2021,95.59,260.0,+,53.05,Active,1,LEO,USA,USA,Commercial,Communications,Falcon,1 48688U 21044BC  23276.50048409  .00021399  00000+0  14502-2 0  9992,2 48688  53.0541  93.8563 0001344  80.5008 279.6133 15.06423831130605,15.06423831,0.0001344,LEO
48689,STARLINK-2617,2021,95.59,260.0,+,53.05,Active,1,LEO,USA,USA,Commercial,Communications,Falcon,1 48689U 21044BD  23276.50553807  .00001596  00000+0  12600-3 0  9991,2 48689  53.0539  98.8015 0001429  89.3978 270.7175 15.06407871130533,15.06407871,0.0001429,LEO
48690,STARLINK-2740,2021,95.59,260.0,+,53.05,Active,1,LEO,USA,USA,Commercial,Communications,Falcon,1 48690U 21044BE  23276.24661451  .00000452  00000+0  49237-4 0  9996,2 48690  53.0528 109.9960 0001859  87.6873 272.4329 15.06402906130352,15.06402906,0.0001859,LEO
48691,STARLINK-2750,2021,95.59,260.0,+,53.05,Active,1,LEO,USA,USA,Commercial,Communications,Falcon,1 48691U 21044BF  23275.82135465  .00016878  00000+0  11494-2 0  9992,2 48691  53.0536 106.9027 0001410  77.3934 282.7212 15.06396024130369,15.06396024,0.000141,LEO
48692,STARLINK-2752,2021,95.59,260.0,+,53.05,Active,1,LEO,USA,USA,Commercial,Communications,Falcon,1 48692U 21044BG  23276.53643985  .00021443  00000+0  14532-2 0  9993,2 48692  53.0534 103.8174 0001292  83.1677 276.9459 15.06421590130471,15.0642159,0.0001292,LEO
48693,STARLINK-2618,2021,95.59,260.0,+,53.05,Active,1,LEO,USA,USA,Commercial,Communications,Falcon,1 48693U 21044BH  23276.27884617  .00007145  00000+0  49783-3 0  9994,2 48693  53.0521 109.8518 0001243  72.9719 287.1407 15.06418267130367,15.06418267,0.0001243,LEO
48694,STARLINK-2748,2021,95.59,260.0,+,53.05,Active,1,LEO,USA,USA,Commercial,Communications,Falcon,1 48694U 21044BJ  23276.24705902  .00002029  00000+0  15509-3 0  9996,2 48694  53.0520 114.9841 0001372  83.2896 276.8249 15.06397329130282,15.06397329,0.0001372,LEO
48695,STARLINK-2616,2021,95.59,260.0,+,53.05,Active,1,LEO,USA,USA,Commercial,Communications,Falcon,1 48695U 21044BK  23276.27012681  .00019925  00000+0  13526-2 0  9994,2 48695  53.0528 114.9365 0001331  90.1871 269.9270 15.06403341130297,15.06403341,0.0001331,LEO
48696,STARLINK-2753,2021,95.59,260.0,+,53.05,Active,1,LEO,USA,USA,Commercial,Communications,Falcon,1 48696U 21044BL  23276.26044677  .00021351  00000+0  14474-2 0  9993,2 48696  53.0538 119.9801 0001353  91.5905 268.5239 15.06413545130226,15.06413545,0.0001353,LEO
48697,STARLINK-2715,2021,95.58,260.0,+,53.05,Active,1,LEO,USA,USA,Commercial,Communications,Falcon,1 48697U 21044BM  23276.28977377  .00033699  00000+0  22598-2 0  9992,2 48697  53.0527 119.8081 0001123 102.4636 257.6479 15.06574374130225,15.06574374,0.0001123,LEO
48767,ONEWEB-0211,2021,109.46,148.0,+,87.89,Active,1,LEO,Russia,UK,Commercial,Communications,Soyuz,1 48767U 21045A   23276.56744818  .00000145  00000+0  35182-3 0  9998,2 48767  87.8935  95.8208 0001707  85.0077 275.1248 13.15551510114561,13.1555151,0.0001707,LEO
48768,ONEWEB-0223,2021,109.46,148.0,+,87.89,Active,1,LEO,Russia,UK,Commercial,Communications,Soyuz,1 48768U 21045B   23276.51253390  .00000101  00000+0  23549-3 0  9990,2 48768  87.8934  95.8360 0001906  74.5152 285.6188 13.15547582114549,13.15547582,0.0001906,LEO
48769,ONEWEB-0230,2021,109.46,148.0,+,87.89,Active,1,LEO,Russia,UK,Commercial,Communications,Soyuz,1 48769U 21045C   23276.56113453  .00000213  00000+0  53223-3 0  9997,2 48769  87.8942  95.8926 0001805  86.8251 273.3086 13.15544722114815,13.15544722,0.0001805,LEO
48770,ONEWEB-0237,2021,109.46,148.0,+,87.89,Active,1,LEO,Russia,UK,Commercial,Communications,Soyuz,1 48770U 21045D   23276.55055409  .00000120  00000+0  28485-3 0  9993,2 48770  87.8941  95.8131 0002207  79.2178 280.9201 13.15551080114532,13.1555108,0.0002207,LEO
48771,ONEWEB-0235,2021,109.46,148.0,+,87.89,Active,1,LEO,Russia,UK,Commercial,Communications,Soyuz,1 48771U 21045E   23276.52309034  .00000183  00000+0  45277-3 0  9994,2 48771  87.8934  95.8483 0002961  77.8880 282.2582 13.15544545114520,13.15544545,0.0002961,LEO
48772,ONEWEB-0242,2021,109.46,148.0,+,87.89,Active,1,LEO,Russia,UK,Commercial,Communications,Soyuz,1 48772U 21045F   23276.51676566  .00000063  00000+0  13323-3 0  9995,2 48772  87.8935  95.8404 0002002  86.2807 273.8552 13.15547245115696,13.15547245,0.0002002,LEO
48773,ONEWEB-0241,2021,109.46,148.0,+,87.89,Active,1,LEO,Russia,UK,Commercial,Communications,Soyuz,1 48773U 21045G   23276.50409438  .00000126  00000+0  30090-3 0  9997,2 48773  87.8945  95.8656 0001780  70.7552 289.3770 13.15546898114476,13.15546898,0.000178,LEO
48774,ONEWEB-0243,2021,109.46,148.0,+,87.89,Active,1,LEO,Russia,UK,Commercial,Communications,Soyuz,1 48774U 21045H   23276.53577533 -.00000022  00000+0 -91791-4 0  9996,2 48774  87.8943  95.8159 0002262  83.8948 276.2440 13.15546590114505,13.1554659,0.0002262,LEO
48775,ONEWEB-0222,2021,109.46,148.0,+,87.89,Active,1,LEO,Russia,UK,Commercial,Communications,Soyuz,1 48775U 21045J   23276.52520449 -.00000012  00000+0 -67091-4 0  9995,2 48775  87.8933  95.8526 0001870  75.9498 284.1840 13.15550002114548,13.15550002,0.000187,LEO
48776,ONEWEB-0244,2021,109.46,148.0,+,87.89,Active,1,LEO,Russia,UK,Commercial,Communications,Soyuz,1 48776U 21045K   23276.54633019  .00000086  00000+0  19427-3 0  9994,2 48776  87.8931  95.8323 0001948  89.7861 270.3493 13.15552724115113,13.15552724,0.0001948,LEO
48777,ONEWEB-0247,2021,109.46,148.0,+,87.89,Active,1,LEO,Russia,UK,Commercial,Communications,Soyuz,1 48777U 21045L   23276.54210902  .00000025  00000+0  33334-4 0  9994,2 48777  87.8945  95.8475 0002287  77.7799 282.3587 13.15547171114555,13.15547171,0.0002287,LEO
48778,ONEWEB-0245,2021,109.46,148.0,+,87.89,Active,1,LEO,Russia,UK,Commercial,Communications,Soyuz,1 48778U 21045M   23276.53789081  .00000005  00000+0 -21162-4 0  9998,2 48778  87.8933  95.8609 0001715  75.4939 284.6382 13.15551368114526,13.15551368,0.0001715,LEO
48779,ONEWEB-0229,2021,109.46,148.0,+,87.89,Active,1,LEO,Russia,UK,Commercial,Communications,Soyuz,1 48779U 21045N   23276.53153646 -.00000086  00000+0 -26325-3 0  9996,2 48779  87.8935  95.8517 0001995  86.5380 273.5978 13.15545390114559,13.1554539,0.0001995,LEO
48780,ONEWEB-0228,2021,109.46,148.0,+,87.89,Active,1,LEO,Russia,UK,Commercial,Communications,Soyuz,1 48780U 21045P   23276.54528386  .00000010  00000+0 -61925-5 0  9999,2 48780  87.8932  95.8296 0001848  85.2924 274.8417 13.15546309114473,13.15546309,0.0001848,LEO
48781,ONEWEB-0232,2021,109.46,148.0,+,87.89,Active,1,LEO,Russia,UK,Commercial,Communications,Soyuz,1 48781U 21045Q   23276.53999563  .00000009  00000+0 -10573-4 0  9998,2 48781  87.8885  95.8988 0001704  87.1237 273.0088 13.15554635114799,13.15554635,0.0001704,LEO
48782,ONEWEB-0231,2021,109.46,148.0,+,87.89,Active,1,LEO,Russia,UK,Commercial,Communications,Soyuz,1 48782U 21045R   23276.51886268  .00000037  00000+0  63941-4 0  9991,2 48782  87.8945  95.8597 0002018  82.2580 277.8779 13.15545963114488,13.15545963,0.0002018,LEO
48783,ONEWEB-0234,2021,109.41,148.0,+,87.89,Active,1,LEO,Russia,UK,Commercial,Communications,Soyuz,1 48783U 21045S   23276.58334491 -.00036520  00000+0 -96598-1 0  9994,2 48783  87.8939  95.8288 0000084 313.4966 236.5310 13.16132382  5016,13.16132382,8.4e-06,LEO
48784,ONEWEB-0238,2021,109.46,148.0,+,87.89,Active,1,LEO,Russia,UK,Commercial,Communications,Soyuz,1 48784U 21045T   23276.55583072  .00000140  00000+0  33881-3 0  9998,2 48784  87.8935  95.8450 0001590  85.5082 274.6230 13.15551965114525,13.15551965,0.000159,LEO
48785,ONEWEB-0240,2021,109.46,148.0,+,87.89,Active,1,LEO,Russia,UK,Commercial,Communications,Soyuz,1 48785U 21045U   23276.50198276  .00000152  00000+0  37056-3 0  9993,2 48785  87.8938  95.8303 0001883  71.8068 288.3267 13.15551410114542,13.1555141,0.0001883,LEO
48786,ONEWEB-0246,2021,109.46,148.0,+,87.89,Active,1,LEO,Russia,UK,Commercial,Communications,Soyuz,1 48786U 21045V   23276.57378575  .00000213  00000+0  53178-3 0  9994,2 48786  87.8937  95.8173 0002130  79.3709 280.7661 13.15551421114421,13.15551421,0.000213,LEO
48787,ONEWEB-0210,2021,109.46,148.0,+,87.89,Active,1,LEO,Russia,UK,Commercial,Communications,Soyuz,1 48787U 21045W   23276.54843659 -.00000173  00000+0 -49456-3 0  9993,2 48787  87.8934  95.8307 0002570  90.1401 270.0024 13.15548650114465,13.1554865,0.000257,LEO
48788,ONEWEB-0214,2021,109.46,148.0,+,87.89,Active,1,LEO,Russia,UK,Commercial,Communications,Soyuz,1 48788U 21045X   23276.55902699  .00000208  00000+0  51821-3 0  9991,2 48788  87.8933  95.8177 0002513  93.3534 266.7883 13.15550523114433,13.15550523,0.0002513,LEO
48789,ONEWEB-0221,2021,109.46,148.0,+,87.89,Active,1,LEO,Russia,UK,Commercial,Communications,Soyuz,1 48789U 21045Y   23276.56534535  .00000216  00000+0  54023-3 0  9999,2 48789  87.8938  95.8273 0001897  78.8710 281.2633 13.15551640114520,13.1555164,0.0001897,LEO
48790,ONEWEB-0213,2021,109.46,148.0,+,87.89,Active,1,LEO,Russia,UK,Commercial,Communications,Soyuz,1 48790U 21045Z   23276.55268708  .00000176  00000+0  43333-3 0  9993,2 48790  87.8934  95.8472 0002103  79.3995 280.7372 13.15547473114580,13.15547473,0.0002103,LEO
